CCSDS_OMM_VERS = 2.0
CREATION_DATE  = 
ORIGINATOR     = 

OBJECT_NAME    = TWILIGHT C
OBJECT_ID      = 2026-004C
CENTER_NAME    = EARTH
REF_FRAME      = TEME
TIME_SYSTEM    = UTC
MEAN_ELEMENT_THEORY = SGP/SGP4

EPOCH          = 2026-02-03T05:20:47.285664
MEAN_MOTION    = 14.87158814
ECCENTRICITY   = .0007367
INCLINATION    = 97.7973
RA_OF_ASC_NODE = 34.9814
ARG_OF_PERICENTER = 212.5371
MEAN_ANOMALY   = 147.5392

EPHEMERIS_TYPE = 0
CLASSIFICATION_TYPE = U
NORAD_CAT_ID   = 67365
ELEMENT_SET_NO = 999
REV_AT_EPOCH   = 337
BSTAR          = .72745721E-3
MEAN_MOTION_DOT = .6492E-4
MEAN_MOTION_DDOT = 0

CCSDS_OMM_VERS = 2.0
CREATION_DATE  = 
ORIGINATOR     = 

OBJECT_NAME    = TWILIGHT D
OBJECT_ID      = 2026-004D
CENTER_NAME    = EARTH
REF_FRAME      = TEME
TIME_SYSTEM    = UTC
MEAN_ELEMENT_THEORY = SGP/SGP4

EPOCH          = 2026-02-03T05:20:21.719904
MEAN_MOTION    = 14.87127398
ECCENTRICITY   = .00080086
INCLINATION    = 97.8029
RA_OF_ASC_NODE = 34.9894
ARG_OF_PERICENTER = 200.7932
MEAN_ANOMALY   = 159.2959

EPHEMERIS_TYPE = 0
CLASSIFICATION_TYPE = U
NORAD_CAT_ID   = 67366
ELEMENT_SET_NO = 999
REV_AT_EPOCH   = 337
BSTAR          = .45430935E-3
MEAN_MOTION_DOT = .403E-4
MEAN_MOTION_DDOT = 0

CCSDS_OMM_VERS = 2.0
CREATION_DATE  = 
ORIGINATOR     = 

OBJECT_NAME    = TWILIGHT E
OBJECT_ID      = 2026-004E
CENTER_NAME    = EARTH
REF_FRAME      = TEME
TIME_SYSTEM    = UTC
MEAN_ELEMENT_THEORY = SGP/SGP4

EPOCH          = 2026-02-03T05:18:17.646912
MEAN_MOTION    = 14.87280332
ECCENTRICITY   = .00068491
INCLINATION    = 97.7960
RA_OF_ASC_NODE = 34.9819
ARG_OF_PERICENTER = 214.1299
MEAN_ANOMALY   = 145.9478

EPHEMERIS_TYPE = 0
CLASSIFICATION_TYPE = U
NORAD_CAT_ID   = 67367
ELEMENT_SET_NO = 999
REV_AT_EPOCH   = 337
BSTAR          = .68278982E-3
MEAN_MOTION_DOT = .6108E-4
MEAN_MOTION_DDOT = 0

CCSDS_OMM_VERS = 2.0
CREATION_DATE  = 
ORIGINATOR     = 

OBJECT_NAME    = TWILIGHT F
OBJECT_ID      = 2026-004F
CENTER_NAME    = EARTH
REF_FRAME      = TEME
TIME_SYSTEM    = UTC
MEAN_ELEMENT_THEORY = SGP/SGP4

EPOCH          = 2026-02-03T05:17:28.434336
MEAN_MOTION    = 14.87306672
ECCENTRICITY   = .00073516
INCLINATION    = 97.8020
RA_OF_ASC_NODE = 34.9917
ARG_OF_PERICENTER = 201.9824
MEAN_ANOMALY   = 158.1078

EPHEMERIS_TYPE = 0
CLASSIFICATION_TYPE = U
NORAD_CAT_ID   = 67368
ELEMENT_SET_NO = 999
REV_AT_EPOCH   = 337
BSTAR          = .64656607E-3
MEAN_MOTION_DOT = .5785E-4
MEAN_MOTION_DDOT = 0

CCSDS_OMM_VERS = 2.0
CREATION_DATE  = 
ORIGINATOR     = 

OBJECT_NAME    = TWILIGHT G
OBJECT_ID      = 2026-004G
CENTER_NAME    = EARTH
REF_FRAME      = TEME
TIME_SYSTEM    = UTC
MEAN_ELEMENT_THEORY = SGP/SGP4

EPOCH          = 2026-02-03T06:53:26.550240
MEAN_MOTION    = 14.87273573
ECCENTRICITY   = .00062653
INCLINATION    = 97.7952
RA_OF_ASC_NODE = 35.0487
ARG_OF_PERICENTER = 215.9923
MEAN_ANOMALY   = 144.0873

EPHEMERIS_TYPE = 0
CLASSIFICATION_TYPE = U
NORAD_CAT_ID   = 67369
ELEMENT_SET_NO = 999
REV_AT_EPOCH   = 338
BSTAR          = .36521075E-3
MEAN_MOTION_DOT = .324E-4
MEAN_MOTION_DDOT = 0

CCSDS_OMM_VERS = 2.0
CREATION_DATE  = 
ORIGINATOR     = 

OBJECT_NAME    = TWILIGHT H
OBJECT_ID      = 2026-004H
CENTER_NAME    = EARTH
REF_FRAME      = TEME
TIME_SYSTEM    = UTC
MEAN_ELEMENT_THEORY = SGP/SGP4

EPOCH          = 2026-02-03T05:15:02.077056
MEAN_MOTION    = 14.87416307
ECCENTRICITY   = .00059322
INCLINATION    = 97.7949
RA_OF_ASC_NODE = 34.9831
ARG_OF_PERICENTER = 215.1429
MEAN_ANOMALY   = 144.9396

EPHEMERIS_TYPE = 0
CLASSIFICATION_TYPE = U
NORAD_CAT_ID   = 67370
ELEMENT_SET_NO = 999
REV_AT_EPOCH   = 337
BSTAR          = .74429873E-3
MEAN_MOTION_DOT = .6685E-4
MEAN_MOTION_DDOT = 0

CCSDS_OMM_VERS = 2.0
CREATION_DATE  = 
ORIGINATOR     = 

OBJECT_NAME    = TWILIGHT J
OBJECT_ID      = 2026-004J
CENTER_NAME    = EARTH
REF_FRAME      = TEME
TIME_SYSTEM    = UTC
MEAN_ELEMENT_THEORY = SGP/SGP4

EPOCH          = 2026-02-03T05:07:19.629696
MEAN_MOTION    = 14.87824063
ECCENTRICITY   = .00053004
INCLINATION    = 97.7990
RA_OF_ASC_NODE = 34.9962
ARG_OF_PERICENTER = 197.4298
MEAN_ANOMALY   = 162.6738

EPHEMERIS_TYPE = 0
CLASSIFICATION_TYPE = U
NORAD_CAT_ID   = 67371
ELEMENT_SET_NO = 999
REV_AT_EPOCH   = 337
BSTAR          = .86549453E-3
MEAN_MOTION_DOT = .7862E-4
MEAN_MOTION_DDOT = 0

CCSDS_OMM_VERS = 2.0
CREATION_DATE  = 
ORIGINATOR     = 

OBJECT_NAME    = TWILIGHT K
OBJECT_ID      = 2026-004K
CENTER_NAME    = EARTH
REF_FRAME      = TEME
TIME_SYSTEM    = UTC
MEAN_ELEMENT_THEORY = SGP/SGP4

EPOCH          = 2026-02-03T06:38:07.334592
MEAN_MOTION    = 14.87967408
ECCENTRICITY   = .00036664
INCLINATION    = 97.7969
RA_OF_ASC_NODE = 35.0637
ARG_OF_PERICENTER = 190.7822
MEAN_ANOMALY   = 169.3316

EPHEMERIS_TYPE = 0
CLASSIFICATION_TYPE = U
NORAD_CAT_ID   = 67372
ELEMENT_SET_NO = 999
REV_AT_EPOCH   = 338
BSTAR          = .35096645E-3
MEAN_MOTION_DOT = .3165E-4
MEAN_MOTION_DDOT = 0

CCSDS_OMM_VERS = 2.0
CREATION_DATE  = 
ORIGINATOR     = 

OBJECT_NAME    = TWILIGHT L
OBJECT_ID      = 2026-004L
CENTER_NAME    = EARTH
REF_FRAME      = TEME
TIME_SYSTEM    = UTC
MEAN_ELEMENT_THEORY = SGP/SGP4

EPOCH          = 2026-02-03T06:46:44.728896
MEAN_MOTION    = 14.87572080
ECCENTRICITY   = .00051554
INCLINATION    = 97.7983
RA_OF_ASC_NODE = 35.0587
ARG_OF_PERICENTER = 204.0626
MEAN_ANOMALY   = 156.0350

EPHEMERIS_TYPE = 0
CLASSIFICATION_TYPE = U
NORAD_CAT_ID   = 67373
ELEMENT_SET_NO = 999
REV_AT_EPOCH   = 338
BSTAR          = .33184589E-3
MEAN_MOTION_DOT = .296E-4
MEAN_MOTION_DDOT = 0

CCSDS_OMM_VERS = 2.0
CREATION_DATE  = 
ORIGINATOR     = 

OBJECT_NAME    = TWILIGHT M
OBJECT_ID      = 2026-004M
CENTER_NAME    = EARTH
REF_FRAME      = TEME
TIME_SYSTEM    = UTC
MEAN_ELEMENT_THEORY = SGP/SGP4

EPOCH          = 2026-02-03T05:02:38.894496
MEAN_MOTION    = 14.87929346
ECCENTRICITY   = .00039462
INCLINATION    = 97.7967
RA_OF_ASC_NODE = 34.9950
ARG_OF_PERICENTER = 191.7412
MEAN_ANOMALY   = 168.3713

EPHEMERIS_TYPE = 0
CLASSIFICATION_TYPE = U
NORAD_CAT_ID   = 67374
ELEMENT_SET_NO = 999
REV_AT_EPOCH   = 337
BSTAR          = .41859123E-3
MEAN_MOTION_DOT = .3782E-4
MEAN_MOTION_DDOT = 0

CCSDS_OMM_VERS = 2.0
CREATION_DATE  = 
ORIGINATOR     = 

OBJECT_NAME    = TWILIGHT N
OBJECT_ID      = 2026-004N
CENTER_NAME    = EARTH
REF_FRAME      = TEME
TIME_SYSTEM    = UTC
MEAN_ELEMENT_THEORY = SGP/SGP4

EPOCH          = 2026-02-03T05:02:04.302528
MEAN_MOTION    = 14.87950226
ECCENTRICITY   = .00045426
INCLINATION    = 97.8004
RA_OF_ASC_NODE = 35.0042
ARG_OF_PERICENTER = 187.6658
MEAN_ANOMALY   = 172.4489

EPHEMERIS_TYPE = 0
CLASSIFICATION_TYPE = U
NORAD_CAT_ID   = 67375
ELEMENT_SET_NO = 999
REV_AT_EPOCH   = 337
BSTAR          = .32177705E-3
MEAN_MOTION_DOT = .2896E-4
MEAN_MOTION_DDOT = 0

CCSDS_OMM_VERS = 2.0
CREATION_DATE  = 
ORIGINATOR     = 

OBJECT_NAME    = TWILIGHT P
OBJECT_ID      = 2026-004P
CENTER_NAME    = EARTH
REF_FRAME      = TEME
TIME_SYSTEM    = UTC
MEAN_ELEMENT_THEORY = SGP/SGP4

EPOCH          = 2026-02-03T06:42:09.348768
MEAN_MOTION    = 14.87794272
ECCENTRICITY   = .00048515
INCLINATION    = 97.8002
RA_OF_ASC_NODE = 35.0663
ARG_OF_PERICENTER = 193.8559
MEAN_ANOMALY   = 166.2525

EPHEMERIS_TYPE = 0
CLASSIFICATION_TYPE = U
NORAD_CAT_ID   = 67376
ELEMENT_SET_NO = 999
REV_AT_EPOCH   = 338
BSTAR          = .3326351E-3
MEAN_MOTION_DOT = .2984E-4
MEAN_MOTION_DDOT = 0

