TWILIGHT C              
1 67365U 26004C   26034.22276951  .00006492  00000+0  72746-3 0  9997
2 67365  97.7973  34.9814 0007367 212.5371 147.5392 14.87158814  3375
TWILIGHT D              
1 67366U 26004D   26034.22247361  .00004030  00000+0  45431-3 0  9998
2 67366  97.8029  34.9894 0008008 200.7932 159.2959 14.87127398  3374
TWILIGHT E              
1 67367U 26004E   26034.22103758  .00006108  00000+0  68279-3 0  9993
2 67367  97.7960  34.9819 0006849 214.1299 145.9478 14.87280332  3377
TWILIGHT F              
1 67368U 26004F   26034.22046799  .00005785  00000+0  64657-3 0  9991
2 67368  97.8020  34.9917 0007351 201.9824 158.1078 14.87306672  3370
TWILIGHT G              
1 67369U 26004G   26034.28711285  .00003240  00000+0  36521-3 0  9990
2 67369  97.7952  35.0487 0006265 215.9923 144.0873 14.87273573  3387
TWILIGHT H              
1 67370U 26004H   26034.21877404  .00006685  00000+0  74430-3 0  9998
2 67370  97.7949  34.9831 0005932 215.1429 144.9396 14.87416307  3371
TWILIGHT J              
1 67371U 26004J   26034.21342164  .00007862  00000+0  86549-3 0  9991
2 67371  97.7990  34.9962 0005300 197.4298 162.6738 14.87824063  3377
TWILIGHT K              
1 67372U 26004K   26034.27647378  .00003165  00000+0  35097-3 0  9997
2 67372  97.7969  35.0637 0003666 190.7822 169.3316 14.87967408  3385
TWILIGHT L              
1 67373U 26004L   26034.28246214  .00002960  00000+0  33185-3 0  9991
2 67373  97.7983  35.0587 0005155 204.0626 156.0350 14.87572080  3381
TWILIGHT M              
1 67374U 26004M   26034.21017239  .00003782  00000+0  41859-3 0  9998
2 67374  97.7967  34.9950 0003946 191.7412 168.3713 14.87929346  3376
TWILIGHT N              
1 67375U 26004N   26034.20977202  .00002896  00000+0  32178-3 0  9992
2 67375  97.8004  35.0042 0004542 187.6658 172.4489 14.87950226  3370
TWILIGHT P              
1 67376U 26004P   26034.27927487  .00002984  00000+0  33264-3 0  9995
2 67376  97.8002  35.0663 0004851 193.8559 166.2525 14.87794272  3380
